NORAD_CAT_ID,OBJECT_NAME,OBJECT_TYPE,EPOCH,MEAN_MOTION,ECCENTRICITY,INCLINATION,RA_OF_ASC_NODE,ARG_OF_PERICENTER,MEAN_ANOMALY,BSTAR,MEAN_MOTION_DOT,MEAN_MOTION_DDOT,TLE_LINE0,TLE_LINE1,TLE_LINE2,SEMIMAJOR_AXIS,PERIOD,APOGEE,PERIGEE,DECAYED
55781.0,STARLINK-5820,PAYLOAD,2023-08-03 19:02:27,14.98325487,0.0002971,69.9982,97.1472,269.2625,90.8194,-3.5634e-05,-5.18e-06,0.0,0 STARLINK-5820,1 55781U 23028AS  23215.79337179 -.00000518  00000-0 -35634-4 0  9991,2 55781  69.9982  97.1472 0002971 269.2625  90.8194 14.98325487 24392,6950.207,96.107,574.137,570.007,0.0
55781.0,STARLINK-5820,PAYLOAD,2023-08-04 19:04:28,14.98308877,0.0002916,69.9985,94.623,258.7026,101.3806,0.00037941,4.434e-05,0.0,0 STARLINK-5820,1 55781U 23028AS  23216.79477307  .00004434  00000-0  37941-3 0  9991,2 55781  69.9985  94.6230 0002916 258.7026 101.3806 14.98308877 24545,6950.258,96.108,574.15,570.097,0.0
55781.0,STARLINK-5820,PAYLOAD,2023-08-05 01:29:00,14.98332875,0.000274,69.9985,93.9493,254.1435,105.9422,3.1852e-06,-5.5e-07,0.0,0 STARLINK-5820,1 55781U 23028AS  23217.06180635 -.00000055  00000-0  31852-5 0  9990,2 55781  69.9985  93.9493 0002740 254.1435 105.9422 14.98332875 24580,6950.184,96.107,573.953,570.145,0.0
55781.0,STARLINK-5820,PAYLOAD,2023-08-06 01:31:00,14.98331643,0.0002896,69.9986,91.4238,265.8517,94.2311,0.00010456,1.155e-05,0.0,0 STARLINK-5820,1 55781U 23028AS  23218.06320364  .00001155  00000-0  10456-3 0  9992,2 55781  69.9986  91.4238 0002896 265.8517  94.2311 14.98331643 24739,6950.188,96.107,574.066,570.04,0.0
55781.0,STARLINK-5820,PAYLOAD,2023-08-06 09:31:41,14.9832589,0.0002851,69.9988,90.5804,267.3149,92.7684,1.8175e-05,1.24e-06,0.0,0 STARLINK-5820,1 55781U 23028AS  23218.39700973  .00000124  00000-0  18175-4 0  9998,2 55781  69.9988  90.5804 0002851 267.3149  92.7684 14.98325890 24787,6950.206,96.107,574.052,570.089,0.0
55781.0,STARLINK-5820,PAYLOAD,2023-08-06 23:56:54,14.98320766,0.0002853,69.9991,89.0669,266.1192,93.9641,-9.5714e-05,-1.235e-05,0.0,0 STARLINK-5820,1 55781U 23028AS  23218.99785791 -.00001235  00000-0 -95714-4 0  9995,2 55781  69.9991  89.0669 0002853 266.1192  93.9641 14.98320766 24873,6950.221,96.108,574.069,570.104,0.0
55781.0,STARLINK-5820,PAYLOAD,2023-08-07 19:10:31,14.98329703,0.0002941,69.9992,87.047,267.5169,92.5654,1.0786e-05,3.6e-07,0.0,0 STARLINK-5820,1 55781U 23028AS  23219.79897054  .00000036  00000-0  10786-4 0  9992,2 55781  69.9992  87.0470 0002941 267.5169  92.5654 14.98329703 24991,6950.194,96.107,574.103,570.015,0.0
55781.0,STARLINK-5820,PAYLOAD,2023-08-08 20:48:39,14.9833088,0.0003068,69.999,84.3535,270.6659,89.4148,0.00014911,1.687e-05,0.0,0 STARLINK-5820,1 55781U 23028AS  23220.86712477  .00001687  00000-0  14911-3 0  9993,2 55781  69.9990  84.3535 0003068 270.6659  89.4148 14.98330880 25151,6950.19,96.107,574.187,569.923,0.0
55781.0,STARLINK-5820,PAYLOAD,2023-08-09 20:50:40,14.98332162,0.0002905,69.9994,81.8284,267.891,92.1916,-3.6862e-05,-5.33e-06,0.0,0 STARLINK-5820,1 55781U 23028AS  23221.86852766 -.00000533  00000-0 -36862-4 0  9991,2 55781  69.9994  81.8284 0002905 267.8910  92.1916 14.98332162 25301,6950.186,96.107,574.07,570.032,0.0
55781.0,STARLINK-5820,PAYLOAD,2023-08-11 00:04:57,14.98332821,0.0003037,69.9991,78.9667,268.3638,91.7173,-4.4429e-05,-6.23e-06,0.0,0 STARLINK-5820,1 55781U 23028AS  23223.00344497 -.00000623  00000-0 -44429-4 0  9994,2 55781  69.9991  78.9667 0003037 268.3638  91.7173 14.98332821 25470,6950.184,96.107,574.16,569.938,0.0
55781.0,STARLINK-5820,PAYLOAD,2023-08-12 00:06:58,14.98330397,0.0003161,69.9986,76.4406,268.3423,91.7374,8.6707e-06,1e-07,0.0,0 STARLINK-5820,1 55781U 23028AS  23224.00484419  .00000010  00000-0  86707-5 0  9998,2 55781  69.9986  76.4406 0003161 268.3423  91.7374 14.98330397 25624,6950.192,96.107,574.254,569.86,0.0
55781.0,STARLINK-5820,PAYLOAD,2023-08-13 01:45:07,14.98334571,0.000321,69.9987,73.7478,269.611,90.4681,3.4567e-05,3.19e-06,0.0,0 STARLINK-5820,1 55781U 23028AS  23225.07299996  .00000319  00000-0  34567-4 0  9998,2 55781  69.9987  73.7478 0003210 269.6110  90.4681 14.98334571 25788,6950.179,96.107,574.275,569.813,0.0
55781.0,STARLINK-5820,PAYLOAD,2023-08-13 17:46:28,14.98327709,0.0003094,69.9991,72.0646,271.1473,88.9331,-1.2983e-06,-1.09e-06,0.0,0 STARLINK-5820,1 55781U 23028AS  23225.74060532 -.00000109  00000-0 -12983-5 0  9992,2 55781  69.9991  72.0646 0003094 271.1473  88.9331 14.98327709 25882,6950.2,96.107,574.215,569.915,0.0
55781.0,STARLINK-5820,PAYLOAD,2023-08-14 17:48:29,14.98329981,0.0003006,69.9994,69.5399,270.2636,89.8178,-1.1097e-05,-2.25e-06,0.0,0 STARLINK-5820,1 55781U 23028AS  23226.74200359 -.00000225  00000-0 -11097-4 0  9999,2 55781  69.9994  69.5399 0003006 270.2636  89.8178 14.98329981 26036,6950.193,96.107,574.147,569.969,0.0
55781.0,STARLINK-5820,PAYLOAD,2023-08-16 00:15:02,14.98329594,0.0002939,69.9995,66.3411,267.514,92.5683,1.3115e-05,6.3e-07,0.0,0 STARLINK-5820,1 55781U 23028AS  23228.01044239  .00000063  00000-0  13115-4 0  9995,2 55781  69.9995  66.3411 0002939 267.5140  92.5683 14.98329594 26223,6950.194,96.107,574.102,570.016,0.0
55781.0,STARLINK-5820,PAYLOAD,2023-08-17 00:17:03,14.98328623,0.0002953,69.9993,63.8158,268.4962,91.5859,-1.0193e-05,-2.15e-06,0.0,0 STARLINK-5820,1 55781U 23028AS  23229.01184403 -.00000215  00000-0 -10193-4 0  9998,2 55781  69.9993  63.8158 0002953 268.4962  91.5859 14.98328623 26371,6950.197,96.107,574.115,570.01,0.0
55781.0,STARLINK-5820,PAYLOAD,2023-08-18 00:19:03,14.98333702,0.0003014,69.9991,61.291,269.5805,90.5008,4.3405e-05,4.25e-06,0.0,0 STARLINK-5820,1 55781U 23028AS  23230.01323848  .00000425  00000-0  43405-4 0  9991,2 55781  69.9991  61.2910 0003014 269.5805  90.5008 14.98333702 26520,6950.181,96.107,574.141,569.952,0.0
55781.0,STARLINK-5820,PAYLOAD,2023-08-18 14:44:16,14.98327606,0.0002988,69.9991,59.7764,269.522,90.5597,-7.6568e-06,-1.84e-06,0.0,0 STARLINK-5820,1 55781U 23028AS  23230.61408363 -.00000184  00000-0 -76568-5 0  9994,2 55781  69.9991  59.7764 0002988 269.5220  90.5597 14.98327606 26618,6950.2,96.107,574.142,569.989,0.0
55781.0,STARLINK-5820,PAYLOAD,2023-08-19 14:46:17,14.98329169,0.0002984,69.9993,57.2516,270.0637,90.018,-2.5462e-05,-3.97e-06,0.0,0 STARLINK-5820,1 55781U 23028AS  23231.61548345 -.00000397  00000-0 -25462-4 0  9992,2 55781  69.9993  57.2516 0002984 270.0637  90.0180 14.98329169 26768,6950.195,96.107,574.134,569.987,0.0
55781.0,STARLINK-5820,PAYLOAD,2023-08-20 18:00:34,14.98330133,0.0002851,70.0008,54.3907,266.2472,93.8361,3.2267e-05,2.92e-06,0.0,0 STARLINK-5820,1 55781U 23028AS  23232.75040042  .00000292  00000-0  32267-4 0  9992,2 55781  70.0008  54.3907 0002851 266.2472  93.8361 14.98330133 26931,6950.192,96.107,574.039,570.076,0.0
55781.0,STARLINK-5820,PAYLOAD,2023-08-20 22:48:58,14.98339128,0.0002942,69.9997,53.8838,284.8708,75.2125,0.00012462,1.395e-05,0.0,0 STARLINK-5820,1 55781U 23028AS  23232.95067441  .00001395  00000-0  12462-3 0  9995,2 55781  69.9997  53.8838 0002942 284.8708  75.2125 14.98339128 26969,6950.165,96.106,574.074,569.985,0.0
55781.0,STARLINK-5820,PAYLOAD,2023-08-21 05:13:31,14.98329583,0.0003191,70.0001,53.2118,268.5023,91.577,-2.6316e-06,-1.24e-06,0.0,0 STARLINK-5820,1 55781U 23028AS  23233.21772041 -.00000124  00000-0 -26316-5 0  9990,2 55781  70.0001  53.2118 0003191 268.5023  91.5770 14.98329583 27006,6950.194,96.107,574.277,569.841,0.0
55781.0,STARLINK-5820,PAYLOAD,2023-08-22 21:16:52,14.98327067,0.0002867,70.0002,49.003,266.969,93.1141,-3.1493e-05,-4.69e-06,0.0,0 STARLINK-5820,1 55781U 23028AS  23234.88672375 -.00000469  00000-0 -31493-4 0  9996,2 55781  70.0002  49.0030 0002867 266.9690  93.1141 14.98327067 27256,6950.202,96.107,574.06,570.074,0.0
55781.0,STARLINK-5820,PAYLOAD,2023-08-24 11:44:06,14.98331644,0.0002996,70.0005,44.9626,269.6802,90.4014,2.3642e-05,1.89e-06,0.0,0 STARLINK-5820,1 55781U 23028AS  23236.48895925  .00000189  00000-0  23642-4 0  9996,2 55781  70.0005  44.9626 0002996 269.6802  90.4014 14.98331644 27493,6950.188,96.107,574.135,569.971,0.0
55781.0,STARLINK-5820,PAYLOAD,2023-08-25 13:22:15,14.98330724,0.0003074,70.0004,42.2697,269.701,90.3797,-1.8884e-05,-3.18e-06,0.0,0 STARLINK-5820,1 55781U 23028AS  23237.55711999 -.00000318  00000-0 -18884-4 0  9991,2 55781  70.0004  42.2697 0003074 269.7010  90.3797 14.98330724 27654,6950.191,96.107,574.192,569.919,0.0
55781.0,STARLINK-5820,PAYLOAD,2023-08-25 18:10:39,14.98331449,0.0003009,70.0004,41.7647,267.7344,92.3471,-5.516e-06,-1.59e-06,0.0,0 STARLINK-5820,1 55781U 23028AS  23237.75739888 -.00000159  00000-0 -55160-5 0  9992,2 55781  70.0004  41.7647 0003009 267.7344  92.3471 14.98331449 27688,6950.188,96.107,574.145,569.962,0.0
55781.0,STARLINK-5820,PAYLOAD,2023-08-25 21:22:55,14.98332334,0.0002969,70.0005,41.428,266.8216,93.2603,6.9455e-06,-1e-07,0.0,0 STARLINK-5820,1 55781U 23028AS  23237.89091775 -.00000010  00000-0  69455-5 0  9990,2 55781  70.0005  41.4280 0002969 266.8216  93.2603 14.98332334 27705,6950.186,96.107,574.114,569.987,0.0
55781.0,STARLINK-5820,PAYLOAD,2023-08-26 11:48:07,14.98330636,0.0002819,70.0007,39.9134,262.4907,97.5932,3.8003e-06,-4.8e-07,0.0,0 STARLINK-5820,1 55781U 23028AS  23238.49175797 -.00000048  00000-0  38003-5 0  9990,2 55781  70.0007  39.9134 0002819 262.4907  97.5932 14.98330636 27794,6950.191,96.107,574.015,570.097,0.0
55781.0,STARLINK-5820,PAYLOAD,2023-08-26 18:12:40,14.98329817,0.0002857,70.0007,39.2401,262.1107,97.9728,-4.1597e-06,-1.43e-06,0.0,0 STARLINK-5820,1 55781U 23028AS  23238.75879852 -.00000143  00000-0 -41597-5 0  9991,2 55781  70.0007  39.2401 0002857 262.1107  97.9728 14.98329817 27836,6950.193,96.107,574.044,570.073,0.0
55781.0,STARLINK-5820,PAYLOAD,2023-08-26 19:48:48,14.98330244,0.0002843,70.0008,39.0719,261.4886,98.5951,1.5878e-06,-7.4e-07,0.0,0 STARLINK-5820,1 55781U 23028AS  23238.82555804 -.00000074  00000-0  15878-5 0  9992,2 55781  70.0008  39.0719 0002843 261.4886  98.5951 14.98330244 27840,6950.192,96.107,574.033,570.081,0.0
